NORAD_CAT_ID,OBJECT_NAME,OBJECT_TYPE,EPOCH,MEAN_MOTION,ECCENTRICITY,INCLINATION,RA_OF_ASC_NODE,ARG_OF_PERICENTER,MEAN_ANOMALY,BSTAR,MEAN_MOTION_DOT,MEAN_MOTION_DDOT,TLE_LINE0,TLE_LINE1,TLE_LINE2,SEMIMAJOR_AXIS,PERIOD,APOGEE,PERIGEE,DECAYED
50169.0,STARLINK-3301,PAYLOAD,2023-04-23 20:21:20,15.08845416,0.000102,53.2154,286.5301,75.6667,284.4438,0.00022693,3.326e-05,0.0,0 STARLINK-3301,1 50169U 21125P   23113.84815025  .00003326  00000-0  22693-3 0  9994,2 50169  53.2154 286.5301 0001020  75.6667 284.4438 15.08845416 77962,6917.864,95.437,540.434,539.023,0.0
50169.0,STARLINK-3301,PAYLOAD,2023-04-24 04:18:15,15.08874549,0.000101,53.2153,285.0431,87.1839,272.9269,0.0015236,0.00024066,0.0,0 STARLINK-3301,1 50169U 21125P   23114.17934907  .00024066  00000-0  15236-2 0  9990,2 50169  53.2153 285.0431 0001010  87.1839 272.9269 15.08874549 74923,6917.775,95.435,540.338,538.941,0.0
50169.0,STARLINK-3301,PAYLOAD,2023-04-24 10:39:47,15.08893554,0.0001115,53.2153,283.8535,89.7725,270.3395,0.0026847,0.00042761,0.0,0 STARLINK-3301,1 50169U 21125P   23114.44430535  .00042761  00000-0  26847-2 0  9990,2 50169  53.2153 283.8535 0001115  89.7725 270.3395 15.08893554 78059,6917.717,95.434,540.353,538.81,0.0
50169.0,STARLINK-3301,PAYLOAD,2023-04-25 04:09:01,15.08862492,4.21e-05,53.2151,280.5837,143.362,216.7401,0.00037135,5.631e-05,0.0,0 STARLINK-3301,1 50169U 21125P   23115.17293623  .00005631  00000-0  37135-3 0  9994,2 50169  53.2151 280.5837 0000421 143.3620 216.7401 15.08862492 75074,6917.812,95.436,539.968,539.385,0.0
50169.0,STARLINK-3301,PAYLOAD,2023-04-26 10:21:24,15.08801656,0.0001897,53.2211,274.9336,224.7265,135.3574,0.00023662,3.476e-05,0.0,0 STARLINK-3301,1 50169U 21125P   23116.43153427  .00003476  00000-0  23662-3 0  9996,2 50169  53.2211 274.9336 0001897 224.7265 135.3574 15.08801656 78355,6917.998,95.44,541.175,538.55,0.0
50169.0,STARLINK-3301,PAYLOAD,2023-04-26 16:42:57,15.08835963,9.07e-05,53.2149,273.7451,149.0756,211.029,0.001084,0.00017004,0.0,0 STARLINK-3301,1 50169U 21125P   23116.69649537  .00017004  00000-0  10840-2 0  9991,2 50169  53.2149 273.7451 0000907 149.0756 211.0290 15.08835963 78394,6917.893,95.438,540.385,539.13,0.0
50169.0,STARLINK-3301,PAYLOAD,2023-04-27 10:12:11,15.08848145,9.43e-05,53.2146,270.4738,141.9975,218.1084,0.00090922,0.00014215,0.0,0 STARLINK-3301,1 50169U 21125P   23117.42513220  .00014215  00000-0  90922-3 0  9993,2 50169  53.2146 270.4738 0000943 141.9975 218.1084 15.08848145 78505,6917.855,95.437,540.373,539.068,0.0
50169.0,STARLINK-3301,PAYLOAD,2023-04-27 19:44:29,15.08865651,0.000111,53.2141,268.6889,124.9605,235.1491,0.00077329,0.00012049,0.0,0 STARLINK-3301,1 50169U 21125P   23117.82256136  .00012049  00000-0  77329-3 0  9996,2 50169  53.2141 268.6889 0001110 124.9605 235.1491 15.08865651 75479,6917.802,95.436,540.435,538.899,0.0
50169.0,STARLINK-3301,PAYLOAD,2023-04-28 05:16:47,15.08856034,8.9e-05,53.2142,266.9044,108.6075,251.5014,8.1079e-05,1.003e-05,0.0,0 STARLINK-3301,1 50169U 21125P   23118.21999899  .00001003  00000-0  81079-4 0  9996,2 50169  53.2142 266.9044 0000890 108.6075 251.5014 15.08856034 75533,6917.831,95.437,540.312,539.081,0.0
50169.0,STARLINK-3301,PAYLOAD,2023-04-28 11:38:20,15.08847062,7.79e-05,53.2147,265.7149,113.9233,246.1841,-0.00010308,-1.928e-05,0.0,0 STARLINK-3301,1 50169U 21125P   23118.48496006 -.00001928  00000-0 -10308-3 0  9991,2 50169  53.2147 265.7149 0000779 113.9233 246.1841 15.08847062 75575,6917.859,95.437,540.263,539.185,0.0
50169.0,STARLINK-3301,PAYLOAD,2023-04-29 11:29:07,15.08848531,5.78e-05,53.2158,261.2557,104.8133,255.2923,0.00013149,1.806e-05,0.0,0 STARLINK-3301,1 50169U 21125P   23119.47855610  .00001806  00000-0  13149-3 0  9990,2 50169  53.2158 261.2557 0000578 104.8133 255.2923 15.08848531 78810,6917.854,95.437,540.119,539.319,0.0
50169.0,STARLINK-3301,PAYLOAD,2023-04-29 19:26:02,15.08858063,6.8e-05,53.2154,259.7682,107.8798,252.2268,0.00039004,5.928e-05,0.0,0 STARLINK-3301,1 50169U 21125P   23119.80975128  .00005928  00000-0  39004-3 0  9991,2 50169  53.2154 259.7682 0000680 107.8798 252.2268 15.08858063 75773,6917.825,95.436,540.161,539.22,0.0
50169.0,STARLINK-3301,PAYLOAD,2023-04-30 14:30:40,15.08845847,7.05e-05,53.2156,256.1998,102.2454,257.8617,0.00015703,2.213e-05,0.0,0 STARLINK-3301,1 50169U 21125P   23120.60463434  .00002213  00000-0  15703-3 0  9997,2 50169  53.2156 256.1998 0000705 102.2454 257.8617 15.08845847 75890,6917.863,95.437,540.215,539.24,0.0
50169.0,STARLINK-3301,PAYLOAD,2023-05-01 12:46:04,15.08829799,7.7e-05,53.2164,252.0379,67.9748,292.1326,-0.0001362,-2.454e-05,0.0,0 STARLINK-3301,1 50169U 21125P   23121.53200011 -.00002454  00000-0 -13620-3 0  9995,2 50169  53.2164 252.0379 0000770  67.9748 292.1326 15.08829799 79129,6917.912,95.438,540.309,539.244,0.0
50169.0,STARLINK-3301,PAYLOAD,2023-05-01 14:21:27,15.08833329,8.08e-05,53.2158,251.7392,83.7999,276.3085,-8.4579e-05,-1.633e-05,0.0,0 STARLINK-3301,1 50169U 21125P   23121.59823948 -.00001633  00000-0 -84579-4 0  9991,2 50169  53.2158 251.7392 0000808  83.7999 276.3085 15.08833329 76047,6917.901,95.438,540.325,539.207,0.0
50169.0,STARLINK-3301,PAYLOAD,2023-05-01 17:32:14,15.08837527,7.72e-05,53.2159,251.1441,89.0865,271.0216,2.4535e-05,1.03e-06,0.0,0 STARLINK-3301,1 50169U 21125P   23121.73071859  .00000103  00000-0  24535-4 0  9998,2 50169  53.2159 251.1441 0000772  89.0865 271.0216 15.08837527 79155,6917.888,95.438,540.287,539.219,0.0
50169.0,STARLINK-3301,PAYLOAD,2023-05-02 12:36:51,15.08846243,7.52e-05,53.2159,247.5759,82.4568,277.651,0.00034712,5.242e-05,0.0,0 STARLINK-3301,1 50169U 21125P   23122.52559898  .00005242  00000-0  34712-3 0  9996,2 50169  53.2159 247.5759 0000752  82.4568 277.6510 15.08846243 76185,6917.861,95.437,540.247,539.206,0.0
50169.0,STARLINK-3301,PAYLOAD,2023-05-02 17:23:00,15.08858135,7.97e-05,53.2157,246.6834,82.0793,278.029,0.00083131,0.00012974,0.0,0 STARLINK-3301,1 50169U 21125P   23122.72431708  .00012974  00000-0  83131-3 0  9996,2 50169  53.2157 246.6834 0000797  82.0793 278.0290 15.08858135 79302,6917.825,95.436,540.241,539.139,0.0
50169.0,STARLINK-3301,PAYLOAD,2023-05-03 14:03:01,15.08845214,6.83e-05,53.2158,242.8182,82.7528,277.3542,0.00038655,5.87e-05,0.0,0 STARLINK-3301,1 50169U 21125P   23123.58543934  .00005870  00000-0  38655-3 0  9994,2 50169  53.2158 242.8182 0000683  82.7528 277.3542 15.08845214 76341,6917.864,95.437,540.202,539.257,0.0
50169.0,STARLINK-3301,PAYLOAD,2023-05-03 17:13:48,15.08849787,6.75e-05,53.2157,242.2234,80.3423,279.7645,0.00064221,9.95e-05,0.0,0 STARLINK-3301,1 50169U 21125P   23123.71791874  .00009950  00000-0  64221-3 0  9998,2 50169  53.2157 242.2234 0000675  80.3423 279.7645 15.08849787 79455,6917.85,95.437,540.182,539.249,0.0
50169.0,STARLINK-3301,PAYLOAD,2023-05-04 13:53:49,15.08847664,7.83e-05,53.2154,238.3575,80.6885,279.4195,0.00048684,7.47e-05,0.0,0 STARLINK-3301,1 50169U 21125P   23124.57904044  .00007470  00000-0  48684-3 0  9998,2 50169  53.2154 238.3575 0000783  80.6885 279.4195 15.08847664 76491,6917.857,95.437,540.264,539.18,0.0
50169.0,STARLINK-3301,PAYLOAD,2023-05-04 17:04:35,15.08851931,8.67e-05,53.2156,237.7631,76.7453,283.3636,0.00058404,9.022e-05,0.0,0 STARLINK-3301,1 50169U 21125P   23124.71151933  .00009022  00000-0  58404-3 0  9991,2 50169  53.2156 237.7631 0000867  76.7453 283.3636 15.08851931 79601,6917.844,95.437,540.309,539.109,0.0
50169.0,STARLINK-3301,PAYLOAD,2023-05-05 07:23:03,15.08842436,0.0001107,53.2165,235.0869,88.4452,271.6666,0.00028585,4.265e-05,0.0,0 STARLINK-3301,1 50169U 21125P   23125.30768393  .00004265  00000-0  28585-3 0  9992,2 50169  53.2165 235.0869 0001107  88.4452 271.6666 15.08842436 76602,6917.873,95.437,540.504,538.972,0.0
50169.0,STARLINK-3301,PAYLOAD,2023-05-05 16:55:22,15.08840081,9.56e-05,53.2166,233.3028,91.0758,269.0344,0.00030199,4.522e-05,0.0,0 STARLINK-3301,1 50169U 21125P   23125.70512521  .00004522  00000-0  30199-3 0  9996,2 50169  53.2166 233.3028 0000956  91.0758 269.0344 15.08840081 79758,6917.88,95.438,540.406,539.084,0.0
50169.0,STARLINK-3301,PAYLOAD,2023-05-06 13:35:23,15.08855437,0.0001064,53.217,229.4367,94.5148,265.5966,0.00070942,0.00011025,0.0,0 STARLINK-3301,1 50169U 21125P   23126.56624292  .00011025  00000-0  70942-3 0  9996,2 50169  53.2170 229.4367 0001064  94.5148 265.5966 15.08855437 79883,6917.833,95.437,540.434,538.962,0.0
50169.0,STARLINK-3301,PAYLOAD,2023-05-07 13:26:10,15.0884645,8.75e-05,53.2155,224.9758,94.5871,265.5221,0.0001965,2.841e-05,0.0,0 STARLINK-3301,1 50169U 21125P   23127.55984104  .00002841  00000-0  19650-3 0  9992,2 50169  53.2155 224.9758 0000875  94.5871 265.5221 15.08846450 76945,6917.861,95.437,540.331,539.12,0.0
50169.0,STARLINK-3301,PAYLOAD,2023-05-08 13:16:57,15.08838923,0.0001065,53.2157,220.5184,101.8201,258.291,-4.5889e-05,-1.018e-05,0.0,0 STARLINK-3301,1 50169U 21125P   23128.55344298 -.00001018  00000-0 -45889-4 0  9998,2 50169  53.2157 220.5184 0001065 101.8201 258.2910 15.08838923 77090,6917.884,95.438,540.485,539.012,0.0
50169.0,STARLINK-3301,PAYLOAD,2023-05-08 14:52:20,15.08841056,0.0001145,53.216,220.2205,101.075,259.0371,1.6352e-05,-2.8e-07,0.0,0 STARLINK-3301,1 50169U 21125P   23128.61968259 -.00000028  00000-0  16352-4 0  9996,2 50169  53.2160 220.2205 0001145 101.0750 259.0371 15.08841056 80191,6917.877,95.437,540.534,538.95,0.0
50169.0,STARLINK-3301,PAYLOAD,2023-05-09 13:07:44,15.08842304,0.0001092,53.2155,216.0569,86.3694,273.7423,0.00017193,2.45e-05,0.0,0 STARLINK-3301,1 50169U 21125P   23129.54704622  .00002450  00000-0  17193-3 0  9994,2 50169  53.2155 216.0569 0001092  86.3694 273.7423 15.08842304 80338,6917.873,95.437,540.494,538.983,0.0
50169.0,STARLINK-3301,PAYLOAD,2023-05-10 11:23:08,15.08840793,0.0001102,53.2151,211.8935,89.8874,270.2245,0.00016665,2.365e-05,0.0,0 STARLINK-3301,1 50169U 21125P   23130.47440945  .00002365  00000-0  16665-3 0  9991,2 50169  53.2151 211.8935 0001102  89.8874 270.2245 15.08840793 80473,6917.878,95.438,540.505,538.981,0.0
